IRIDIUM 33 DEB          
1 35617U 97051QP  17346.45771419  .00007476  00000-0  89890-3 0  9994
2 35617  86.4908 239.0070 0049908 237.0695 122.5723 14.82915078450086
